FLOCK 4G-11             
1 62629U 25009W   26068.45629261  .00012672  00000+0  47740-3 0  9990
2 62629  97.3964 150.6183 0001611 333.5407  26.5750 15.27220677 63680
STARLINK-34041          
1 63844U 25093J   26068.06784352  .00031096  00000+0  11342-2 0  9992
2 63844  42.9984  81.7090 0001366 276.6515  83.4181 15.27595100 47872
